TDRS 3                  
1 19548U 88091B   14299.18401295 -.00000295  00000-0  00000+0 0  3909
2 19548  14.4598  18.5915 0035261 295.6856  84.0992  1.00278857 82759
HST                     
1 20580U 90037B   14300.47020833  .00005383  00000-0  34833-3 0  1444
2 20580  28.4704 247.2395 0002924 261.2753  40.2337 15.06020874144671
TDRS 5                  
1 21639U 91054B   14299.74385745  .00000097  00000-0  00000+0 0  6732
2 21639  13.4652  32.1732 0010494 333.8236 129.4981  1.00281580 85099
TDRS 6                  
1 22314U 93003B   14300.40315558 -.00000285  00000-0  00000+0 0  6820
2 22314  12.9208  34.9844 0004168 279.7740 180.1425  1.00277638 79813
TDRS 7                  
1 23613U 95035B   14300.07355492 -.00000192  00000-0  00000+0 0  8643
2 23613  14.2942  25.7991 0019324  10.3876 110.3304  1.00267966 70563
TRMM                    
1 25063U 97074A   14300.48554602  .00048140  00000-0  54679-3 0  7860
2 25063  34.9553 342.9997 0002919 170.7177 334.8135 15.61213380965334
ISS (ZARYA)             
1 25544U 98067A   14300.55898169  .00018855  00000-0  32660-3 0  3114
2 25544  51.6444 163.4125 0002505 313.3825 130.9100 15.50936285911868
LANDSAT 7               
1 25682U 99020A   14300.27719674  .00000672  00000-0  15917-3 0  7432
2 25682  98.2245   8.1691 0000986  67.0053 293.1228 14.57108271826227
TERRA                   
1 25994U 99068A   14300.49689333  .00000784  00000-0  18392-3 0  7650
2 25994  98.2003  13.3250 0001289  94.1478 265.9880 14.57133590790338
TDRS 8                  
1 26388U 00034A   14299.06048255 -.00000223  00000-0  00000+0 0  3192
2 26388   5.7529  65.3378 0004492 144.6804 295.2944  1.00272519 52543
EO-1                    
1 26619U 00075A   14300.47806771  .00001008  00000-0  20262-3 0   911
2 26619  97.9659 352.9072 0008589 275.2688 192.2493 14.63632827742518
TIMED                   
1 26998U 01055B   14299.92622804  .00002393  00000-0  27351-3 0  9687
2 26998  74.0740  72.7460 0001786 321.6398  38.4655 14.86648494698107
TDRS 9                  
1 27389U 02011A   14300.15274097 -.00000264  00000-0  10000-3 0  5528
2 27389   3.2502  95.3735 0005221 300.4414  13.3403  1.00261021 47818
AQUA                    
1 27424U 02022A   14300.19475125  .00001651  00000-0  37655-3 0  1700
2 27424  98.2136 239.3710 0001620  98.5890  15.5858 14.57096317663890
TDRS 10                 
1 27566U 02055A   14299.55415507  .00000083  00000-0  00000+0 0  2471
2 27566   3.2893  62.7788 0008953 185.0298 172.1304  1.00272666 43600
SORCE                   
1 27651U 03004A   14300.40390975  .00004643  00000-0  52863-3 0  5588
2 27651  39.9956 287.2882 0024829 308.8058  51.0513 14.86466851637187
AURA                    
1 28376U 04026A   14299.76641900  .00001632  00000-0  37210-3 0  3785
2 28376  98.2094 241.1075 0002002  97.3686 262.7751 14.57134336546881
SWIFT                   
1 28485U 04047A   14299.49049038  .00007781  00000-0  57941-3 0  8029
2 28485  20.5584  25.7735 0012131 318.6917  41.2599 14.99684004542922
THEMIS A                
1 30580U 07004A   14300.93526845 -.00000523  00000-0  00000+0 0  9256
2 30580  13.3392 350.6145 8306473 214.8775   0.1909  1.00269602 27967
THEMIS D                
1 30797U 07004D   14301.11857208 -.00000423  00000-0  00000+0 0  1090
2 30797   8.2752 328.1346 8281848 235.8075   0.8988  1.00284019 27825
THEMIS E                
1 30798U 07004E   14301.03700763 -.00000476  00000-0  00000+0 0   856
2 30798   9.0356 341.3310 8283319 223.9832   0.3047  1.00284499 27976
AIM                     
1 31304U 07015A   14300.39352285  .00013044  00000-0  94635-3 0  4817
2 31304  97.8925  67.8152 0005999 162.1452 197.9985 15.04033716409523
C/NOFS                  
1 32765U 08017A   14300.49228839  .00062949  00000-0  14469-2 0  6209
2 32765  13.0031  26.3603 0156448 209.0110 253.0710 15.28867892357003
FGRST (GLAST)           
1 33053U 08029A   14299.81302739  .00003698  00000-0  21043-3 0  6852
2 33053  25.5829  80.2911 0012756 300.8426  59.0854 15.08870854351367
WISE                    
1 36119U 09071A   14300.06602222  .00008322  00000-0  36856-3 0  4020
2 36119  97.5125 310.2077 0004840 104.2209 255.9565 15.21889707269232
TDRS 11                 
1 39070U 13004A   14300.33787747  .00000082  00000-0  00000+0 0  4939
2 39070   6.4792 330.4432 0009225 247.4877 128.3699  1.00265167  6412
TDRS 12                 
1 39504U 14004A   14297.24456051 -.00000298  00000-0  00000+0 0  2060
2 39504   6.8356 338.0154 0030073 190.1940 263.6097  1.00283795  2798
